{
  "type": "FeatureCollection",
  "features": [
    {
      "type": "Feature",
      "properties": {"name": "BikesArea"},
      "geometry": {
        "type": "Polygon",
        "coordinates": [
          [
            [-87.72, 42.069],
            [-87.68, 42.069],
            [-87.67, 42.068],
            [-87.67, 42.064],
            [-87.669, 42.059],
            [-87.524, 41.708],
            [-87.525, 41.642],
            [-87.617, 41.644],
            [-87.620, 41.662],
            [-87.651, 41.657],
            [-87.740, 41.683],
            [-87.721, 41.713],
            [-87.681, 41.713],
            [-87.682, 41.735],
            [-87.761, 41.734],
            [-87.761, 41.774],
            [-87.801, 41.774],
            [-87.801, 41.797],
            [-87.742, 41.800],
            [-87.745, 41.865],
            [-87.775, 41.865],
            [-87.776, 41.909],
            [-87.806, 41.909],
            [-87.807, 41.925],
            [-87.848, 41.934],
            [-87.859, 41.982],
            [-87.875, 41.979],
            [-87.880, 41.958],
            [-87.908, 41.947],
            [-87.942, 41.959],
            [-87.943, 42.008],
            [-87.885, 42.008],
            [-87.855, 41.990],
            [-87.823, 41.984],
            [-87.819, 42.018],
            [-87.789, 42.012],
            [-87.711, 41.997],
            [-87.708, 42.052],
            [-87.727, 42.055],
            [-87.72, 42.069]
          ]
        ]
      }
    }
  ]
}
