{
  "type": "FeatureCollection",
  "features": [
    {
      "type": "Feature",
      "properties": {"name": "CHICAGO OHARE INTL AP"},
      "geometry": {
        "type": "Point",
        "coordinates": [-87.93164, 41.96017]
      }
    },
    {
      "type": "Feature",
      "properties": {"name": "CHICAGO MIDWAY AP"},
      "geometry": {
        "type": "Point",
        "coordinates": [-87.75514, 41.78412]
      }
    },
    {
      "type": "Feature",
      "properties": {"name": "USW00004807"},
      "geometry": {
        "type": "Point",
        "coordinates": [-87.4167, 41.6167]
      }
    },
    {
      "type": "Feature",
      "properties": {"name": "USL000CMTI2"},
      "geometry": {
        "type": "Point",
        "coordinates": [-87.54, 41.73]
      }
    },
    {
      "type": "Feature",
      "properties": {"name": "USL000CNII2"},
      "geometry": {
        "type": "Point",
        "coordinates": [-87.609, 41.856]
      }
    },
    {
      "type": "Feature",
      "properties": {"name": "USL000OKSI2"},
      "geometry": {
        "type": "Point",
        "coordinates": [-87.624, 41.912]
      }
    }
  ]
}
